{"type":"FeatureCollection","features":[{"type":"Feature","properties":{"code":"VAT","name":"Cité du Vatican"},"geometry":{"type":"MultiPolygon","coordinates":[[[[12.439,41.898],[12.431,41.898],[12.428,41.901],[12.431,41.905],[12.438,41.906],[12.439,41.898]]]]}},{"type":"Feature","properties":{"code":"GBR","name":"Royaume-Uni"},"geometry":{"type":"MultiPolygon","coordinates":[[[[-2.668,51.623],[-2.742,51.581],[-2.979,51.539],[-3.08,51.496],[-3.259,51.398],[-3.293,51.39],[-3.562,51.414],[-3.763,51.54],[-3.891,51.592],[-3.944,51.598],[-3.998,51.582],[-4.115,51.566],[-4.235,51.569],[-4.174,51.627],[-4.091,51.66],[-4.276,51.683],[-4.328,51.7],[-4.386,51.741],[-4.531,51.748],[-4.601,51.738],[-4.718,51.684],[-4.902,51.626],[-5.125,51.706],[-5.168,51.741],[-5.167,51.808],[-5.201,51.861],[-5.262,51.88],[-5.183,51.95],[-5.088,51.996],[-4.879,52.042],[-4.561,52.151],[-4.383,52.197],[-4.218,52.277],[-4.149,52.326],[-4.1,52.393],[-4.051,52.475],[-3.98,52.542],[-4.048,52.558],[-4.079,52.608],[-4.071,52.659],[-4.039,52.704],[-4.067,52.761],[-4.118,52.82],[-4.115,52.866],[-4.101,52.915],[-4.229,52.913],[-4.356,52.897],[-4.472,52.862],[-4.584,52.815],[-4.683,52.806],[-4.681,52.844],[-4.638,52.891],[-4.526,52.958],[-4.405,53.014],[-4.362,53.056],[-4.328,53.105],[-4.269,53.145],[-4.111,53.219],[-3.809,53.303],[-3.764,53.308],[-3.646,53.298],[-3.53,53.311],[-3.428,53.341],[-3.326,53.347],[-3.098,53.26],[-3.166,53.395],[-3.065,53.427],[-2.919,53.305],[-2.864,53.293],[-2.75,53.31],[-2.794,53.331],[-2.845,53.332],[-2.913,53.35],[-2.97,53.389],[-3.065,53.513],[-3.059,53.586],[-2.996,53.663],[-2.925,53.733],[-2.984,53.747],[-3.032,53.774],[-3.045,53.844],[-3.027,53.906],[-2.9,53.961],[-2.862,54.044],[-2.846,54.135],[-2.868,54.177],[-2.994,54.171],[-3.055,54.153],[-3.11,54.126],[-3.166,54.128],[-3.322,54.229],[-3.41,54.306],[-3.569,54.468],[-3.592,54.564],[-3.465,54.773],[-3.268,54.907],[-3.036,54.953],[-3.081,54.962],[-3.434,54.964],[-3.55,54.947],[-3.658,54.893],[-3.719,54.876],[-3.783,54.87],[-3.842,54.843],[-3.899,54.805],[-3.958,54.781],[-4.076,54.787],[-4.133,54.779],[-4.174,54.801],[-4.208,54.837],[-4.253,54.847],[-4.304,54.836],[-4.41,54.787],[-4.517,54.758],[-4.648,54.789],[-4.818,54.846],[-4.852,54.825],[-4.89,54.772],[-4.911,54.689],[-5.032,54.761],[-5.135,54.858],[-5.17,54.918],[-5.173,54.986],[-5.117,55.012],[-5.056,54.988],[-4.965,55.149],[-4.785,55.359],[-4.721,55.421],[-4.677,55.501],[-4.684,55.554],[-4.724,55.598],[-4.892,55.699],[-4.89,55.781],[-4.872,55.874],[-4.826,55.93],[-4.807,55.94],[-4.584,55.939],[-4.671,55.967],[-4.844,56.051],[-4.841,56.081],[-4.8,56.158],[-4.819,56.15],[-4.856,56.115],[-4.927,56.028],[-4.97,56.008],[-5.093,55.987],[-5.115,55.945],[-5.135,55.933],[-5.196,55.929],[-5.215,55.889],[-5.228,55.886],[-5.246,55.929],[-5.247,56],[-5.223,56.066],[-5.176,56.117],[-4.997,56.233],[-5.084,56.197],[-5.282,56.09],[-5.383,56.019],[-5.41,55.995],[-5.419,55.975],[-5.418,55.952],[-5.373,55.828],[-5.386,55.77],[-5.556,55.39],[-5.589,55.351],[-5.618,55.331],[-5.647,55.327],[-5.731,55.334],[-5.768,55.363],[-5.768,55.395],[-5.752,55.443],[-5.681,55.624],[-5.651,55.674],[-5.605,55.721],[-5.504,55.802],[-5.507,55.808],[-5.574,55.792],[-5.602,55.797],[-5.623,55.813],[-5.61,56.055],[-5.555,56.135],[-5.535,56.251],[-5.488,56.35],[-5.433,56.422],[-5.392,56.515],[-5.329,56.556],[-5.313,56.619],[-5.243,56.687],[-5.188,56.758],[-5.218,56.751],[-5.564,56.566],[-5.652,56.532],[-5.773,56.541],[-5.865,56.562],[-5.937,56.606],[-5.969,56.69],[-6.058,56.692],[-6.134,56.707],[-6.133,56.718],[-6.035,56.764],[-5.878,56.78],[-5.731,56.853],[-5.861,56.903],[-5.85,56.918],[-5.736,56.961],[-5.591,57.102],[-5.562,57.233],[-5.631,57.294],[-5.656,57.334],[-5.795,57.379],[-5.818,57.436],[-5.802,57.468],[-5.757,57.499],[-5.689,57.524],[-5.582,57.547],[-5.679,57.572],[-5.715,57.601],[-5.742,57.644],[-5.745,57.668],[-5.695,57.778],[-5.665,57.824],[-5.608,57.881],[-5.349,57.878],[-5.319,57.904],[-5.29,57.905],[-5.157,57.881],[-5.177,57.906],[-5.394,58.044],[-5.413,58.07],[-5.351,58.144],[-5.347,58.177],[-5.356,58.212],[-5.338,58.239],[-5.27,58.251],[-5.06,58.25],[-5.008,58.263],[-5.032,58.298],[-5.081,58.345],[-5.09,58.385],[-5.079,58.419],[-5.076,58.489],[-5.067,58.52],[-5.017,58.567],[-4.976,58.58],[-4.925,58.588],[-4.81,58.573],[-4.766,58.554],[-4.715,58.51],[-4.678,58.514],[-4.535,58.562],[-4.492,58.568],[-4.433,58.513],[-4.189,58.557],[-3.86,58.577],[-3.662,58.606],[-3.454,58.617],[-3.259,58.65],[-3.053,58.635],[-3.046,58.616],[-3.057,58.589],[-3.11,58.515],[-3.101,58.434],[-3.113,58.409],[-3.137,58.378],[-3.212,58.321],[-3.411,58.24],[-3.775,58.052],[-3.99,57.959],[-4.02,57.914],[-4.036,57.852],[-3.907,57.84],[-3.857,57.819],[-3.888,57.787],[-4.078,57.677],[-4.135,57.578],[-3.988,57.581],[-3.868,57.6],[-3.628,57.662],[-3.403,57.708],[-3.295,57.71],[-3.084,57.673],[-3.036,57.672],[-2.947,57.689],[-2.856,57.692],[-2.244,57.681],[-2.074,57.702],[-1.962,57.677],[-1.867,57.612],[-1.778,57.494],[-1.781,57.474],[-1.835,57.42],[-1.934,57.352],[-2.02,57.259],[-2.046,57.209],[-2.062,57.153],[-2.09,57.103],[-2.26,56.863],[-2.427,56.731],[-2.501,56.637],[-2.593,56.562],[-2.681,56.514],[-2.775,56.483],[-3.047,56.449],[-3.124,56.425],[-3.214,56.384],[-3.31,56.363],[-3.198,56.366],[-3.087,56.389],[-2.885,56.398],[-2.653,56.318],[-2.674,56.253],[-2.768,56.202],[-2.98,56.194],[-3.178,56.08],[-3.268,56.045],[-3.362,56.028],[-3.48,56.033],[-3.695,56.063],[-3.789,56.095],[-3.704,56.043],[-3.608,56.016],[-3.049,55.952],[-3.015,55.959],[-2.837,56.026],[-2.599,56.027],[-2.147,55.903],[-2.017,55.808],[-1.83,55.672],[-1.729,55.619],[-1.655,55.57],[-1.61,55.498],[-1.523,55.26],[-1.423,55.026],[-1.292,54.774],[-1.232,54.704],[-1.154,54.654],[-0.759,54.541],[-0.671,54.504],[-0.518,54.395],[-0.37,54.279],[-0.233,54.19],[-0.084,54.118],[-0.156,54.081],[-0.206,54.022],[-0.169,53.942],[-0.108,53.865],[0.011,53.743],[0.115,53.609],[0.077,53.629],[0.036,53.641],[-0.019,53.637],[-0.074,53.644],[-0.174,53.685],[-0.27,53.737],[-0.461,53.716],[-0.568,53.725],[-0.66,53.724],[-0.485,53.694],[-0.294,53.692],[0.128,53.468],[0.271,53.335],[0.356,53.16],[0.298,53.081],[0.208,53.03],[0.124,52.972],[0.046,52.906],[0.28,52.809],[0.33,52.812],[0.382,52.825],[0.432,52.858],[0.516,52.938],[0.559,52.967],[0.704,52.977],[0.827,52.971],[0.949,52.953],[1.056,52.959],[1.271,52.925],[1.382,52.894],[1.657,52.754],[1.716,52.677],[1.743,52.579],[1.747,52.469],[1.7,52.369],[1.647,52.279],[1.615,52.162],[1.591,52.12],[1.559,52.087],[1.413,51.995],[1.317,51.957],[1.276,51.974],[1.232,51.971],[1.228,51.949],[1.274,51.902],[1.274,51.845],[1.188,51.803],[1.101,51.785],[0.955,51.808],[0.752,51.73],[0.898,51.689],[0.927,51.647],[0.891,51.571],[0.799,51.538],[0.698,51.523],[0.593,51.519],[0.507,51.501],[0.425,51.466],[0.528,51.484],[0.6,51.468],[0.646,51.405],[0.687,51.387],[0.889,51.36],[1.015,51.36],[1.257,51.375],[1.373,51.375],[1.415,51.363],[1.416,51.311],[1.398,51.182],[1.366,51.155],[1.044,51.047],[0.979,50.972],[0.96,50.926],[0.772,50.934],[0.684,50.886],[0.532,50.853],[0.415,50.819],[0.3,50.776],[0.205,50.763],[-0.204,50.814],[-0.451,50.81],[-0.785,50.765],[-0.871,50.773],[-1.001,50.816],[-1.133,50.845],[-1.285,50.857],[-1.416,50.897],[-1.334,50.821],[-1.517,50.747],[-1.601,50.733],[-1.688,50.735],[-1.866,50.715],[-2.031,50.725],[-2.006,50.673],[-1.962,50.628],[-1.998,50.608],[-2.036,50.603],[-2.35,50.637],[-2.395,50.631],[-2.433,50.599],[-2.548,50.616],[-2.659,50.67],[-2.777,50.706],[-2.901,50.722],[-2.999,50.717],[-3.405,50.632],[-3.485,50.548],[-3.526,50.428],[-3.584,50.322],[-3.68,50.24],[-3.793,50.229],[-3.9,50.286],[-4.103,50.349],[-4.173,50.391],[-4.195,50.393],[-4.217,50.378],[-4.297,50.359],[-4.379,50.358],[-4.507,50.341],[-4.728,50.29],[-4.817,50.256],[-5.01,50.161],[-5.049,50.134],[-5.119,50.038],[-5.225,50.021],[-5.323,50.083],[-5.434,50.104],[-5.551,50.083],[-5.622,50.051],[-5.655,50.077],[-5.656,50.132],[-5.571,50.197],[-5.342,50.246],[-5.142,50.374],[-5.043,50.452],[-5.004,50.495],[-4.956,50.523],[-4.894,50.534],[-4.861,50.582],[-4.583,50.776],[-4.56,50.821],[-4.546,50.901],[-4.523,50.977],[-4.296,51.027],[-4.188,51.189],[-4.158,51.201],[-3.842,51.231],[-3.608,51.229],[-3.375,51.197],[-3.256,51.194],[-3.136,51.205],[-3.042,51.249],[-2.881,51.406],[-2.791,51.475],[-2.687,51.537],[-2.59,51.609],[-2.433,51.741],[-2.539,51.695],[-2.668,51.623]]],[[[-4.197,53.321],[-4.155,53.303],[-4.049,53.306],[-4.084,53.264],[-4.2,53.218],[-4.279,53.172],[-4.373,53.134],[-4.419,53.178],[-4.472,53.176],[-4.553,53.26],[-4.568,53.386],[-4.462,53.419],[-4.315,53.417],[-4.197,53.321]]],[[[-5.105,55.449],[-5.231,55.448],[-5.277,55.457],[-5.331,55.481],[-5.393,55.618],[-5.371,55.667],[-5.346,55.691],[-5.318,55.709],[-5.252,55.717],[-5.185,55.691],[-5.16,55.667],[-5.105,55.574],[-5.095,55.494],[-5.105,55.449]]],[[[-6.129,55.931],[-6.093,55.802],[-6.058,55.723],[-6.055,55.695],[-6.088,55.658],[-6.253,55.607],[-6.305,55.607],[-6.307,55.619],[-6.27,55.67],[-6.302,55.728],[-6.286,55.773],[-6.302,55.781],[-6.334,55.774],[-6.452,55.704],[-6.491,55.697],[-6.496,55.712],[-6.466,55.769],[-6.463,55.808],[-6.445,55.832],[-6.413,55.855],[-6.375,55.871],[-6.344,55.874],[-6.311,55.856],[-6.216,55.905],[-6.129,55.931]]],[[[-5.97,55.815],[-5.991,55.804],[-6.042,55.807],[-6.06,55.823],[-6.071,55.848],[-6.072,55.893],[-6.041,55.926],[-5.912,55.975],[-5.97,55.992],[-5.973,56.004],[-5.939,56.045],[-5.8,56.109],[-5.762,56.12],[-5.725,56.119],[-5.797,56.006],[-5.97,55.815]]],[[[-6.218,54.089],[-6.304,54.095],[-6.364,54.077],[-6.403,54.061],[-6.44,54.064],[-6.548,54.057],[-6.65,54.059],[-6.664,54.085],[-6.647,54.163],[-6.67,54.185],[-6.767,54.196],[-6.803,54.214],[-6.858,54.269],[-6.869,54.294],[-6.877,54.329],[-6.936,54.374],[-7.008,54.407],[-7.05,54.408],[-7.133,54.355],[-7.203,54.302],[-7.178,54.275],[-7.155,54.24],[-7.193,54.214],[-7.307,54.156],[-7.325,54.133],[-7.355,54.121],[-7.409,54.137],[-7.544,54.134],[-7.607,54.144],[-7.679,54.187],[-7.855,54.215],[-7.884,54.284],[-7.918,54.297],[-8.118,54.414],[-8.145,54.454],[-8.119,54.477],[-8.044,54.512],[-7.794,54.571],[-7.754,54.595],[-7.746,54.616],[-7.82,54.64],[-7.886,54.666],[-7.909,54.683],[-7.911,54.698],[-7.873,54.718],[-7.797,54.719],[-7.737,54.71],[-7.69,54.728],[-7.606,54.746],[-7.55,54.768],[-7.502,54.825],[-7.451,54.877],[-7.446,54.905],[-7.401,55.003],[-7.377,55.028],[-7.219,55.092],[-7.179,55.057],[-7.101,55.048],[-7.031,55.081],[-6.947,55.183],[-6.889,55.189],[-6.825,55.181],[-6.699,55.193],[-6.475,55.241],[-6.375,55.242],[-6.234,55.217],[-6.129,55.217],[-6.036,55.145],[-5.986,55.03],[-5.869,54.916],[-5.717,54.817],[-5.711,54.757],[-5.765,54.725],[-5.879,54.684],[-5.879,54.641],[-5.803,54.663],[-5.739,54.673],[-5.583,54.663],[-5.528,54.62],[-5.49,54.554],[-5.47,54.5],[-5.484,54.442],[-5.526,54.46],[-5.569,54.513],[-5.616,54.537],[-5.671,54.55],[-5.646,54.478],[-5.656,54.382],[-5.632,54.373],[-5.558,54.371],[-5.607,54.273],[-5.708,54.246],[-5.826,54.236],[-5.855,54.201],[-5.876,54.156],[-5.938,54.089],[-6.019,54.051],[-6.12,54.059],[-6.218,54.089]]],[[[-1.066,50.69],[-1.149,50.656],[-1.176,50.615],[-1.196,50.599],[-1.251,50.589],[-1.306,50.589],[-1.515,50.67],[-1.563,50.666],[-1.516,50.703],[-1.386,50.734],[-1.313,50.773],[-1.144,50.735],[-1.066,50.69]]]]}},{"type":"Feature","properties":{"code":"CHE","name":"Suisse"},"geometry":{"type":"MultiPolygon","coordinates":[[[[9.524,47.524],[9.554,47.511],[9.626,47.467],[9.609,47.392],[9.528,47.271],[9.484,47.173],[9.479,47.098],[9.488,47.062],[9.502,47.063],[9.58,47.057],[9.62,47.057],[9.745,47.037],[9.845,47.007],[9.865,46.976],[9.878,46.938],[9.997,46.885],[10.133,46.852],[10.18,46.862],[10.349,46.985],[10.415,46.964],[10.455,46.899],[10.453,46.865],[10.406,46.735],[10.398,46.665],[10.438,46.619],[10.442,46.583],[10.431,46.55],[10.363,46.547],[10.272,46.565],[10.196,46.621],[10.138,46.614],[10.087,46.6],[10.061,46.547],[10.038,46.483],[10.046,46.448],[10.082,46.421],[10.11,46.363],[10.13,46.288],[10.145,46.254],[10.128,46.238],[10.081,46.228],[10.041,46.238],[9.972,46.328],[9.939,46.362],[9.884,46.368],[9.788,46.346],[9.639,46.296],[9.58,46.296],[9.529,46.306],[9.481,46.349],[9.441,46.431],[9.428,46.482],[9.399,46.481],[9.304,46.496],[9.26,46.475],[9.26,46.391],[9.251,46.287],[9.203,46.219],[9.071,46.102],[9.022,46.051],[9.003,46.015],[8.999,45.983],[9.019,45.928],[9.047,45.876],[9.024,45.846],[8.954,45.83],[8.904,45.862],[8.885,45.919],[8.778,45.996],[8.827,46.061],[8.819,46.077],[8.642,46.111],[8.565,46.16],[8.458,46.246],[8.438,46.283],[8.443,46.403],[8.437,46.432],[8.423,46.446],[8.371,46.445],[8.299,46.403],[8.232,46.341],[8.096,46.271],[8.082,46.256],[8.127,46.188],[8.125,46.161],[8.014,46.052],[7.993,46.016],[7.852,45.947],[7.788,45.922],[7.593,45.972],[7.539,45.978],[7.452,45.944],[7.328,45.912],[7.129,45.88],[7.056,45.904],[7.021,45.926],[7.004,45.959],[6.954,46.017],[6.897,46.052],[6.858,46.089],[6.806,46.131],[6.772,46.165],[6.817,46.275],[6.784,46.314],[6.767,46.369],[6.776,46.407],[6.758,46.416],[6.578,46.437],[6.429,46.431],[6.322,46.394],[6.235,46.333],[6.224,46.319],[6.23,46.308],[6.273,46.252],[6.199,46.193],[6.087,46.147],[6.007,46.142],[5.971,46.151],[5.97,46.215],[6.036,46.238],[6.096,46.279],[6.116,46.338],[6.123,46.379],[6.06,46.428],[6.068,46.459],[6.107,46.516],[6.13,46.567],[6.161,46.611],[6.285,46.683],[6.41,46.755],[6.429,46.832],[6.439,46.926],[6.456,46.948],[6.625,47.004],[6.667,47.027],[6.688,47.058],[6.821,47.163],[6.952,47.267],[6.979,47.302],[7.001,47.323],[7.001,47.339],[6.984,47.353],[6.921,47.361],[6.9,47.394],[6.968,47.453],[7.053,47.489],[7.136,47.49],[7.169,47.473],[7.167,47.454],[7.203,47.433],[7.266,47.426],[7.343,47.433],[7.42,47.455],[7.467,47.508],[7.495,47.547],[7.616,47.593],[7.698,47.57],[7.927,47.564],[8.094,47.576],[8.198,47.607],[8.328,47.607],[8.415,47.59],[8.43,47.592],[8.454,47.596],[8.478,47.613],[8.559,47.624],[8.571,47.638],[8.567,47.652],[8.552,47.659],[8.452,47.652],[8.413,47.663],[8.403,47.688],[8.436,47.731],[8.51,47.767],[8.573,47.776],[8.618,47.766],[8.728,47.7],[8.755,47.698],[8.77,47.71],[8.793,47.717],[8.831,47.704],[8.874,47.663],[8.881,47.656],[9.128,47.671],[9.183,47.671],[9.35,47.599],[9.524,47.524]]]]}},{"type":"Feature","properties":{"code":"ESP","name":"Espagne"},"geometry":{"type":"MultiPolygon","coordinates":[[[[1.594,38.672],[1.571,38.659],[1.505,38.671],[1.406,38.671],[1.402,38.711],[1.417,38.74],[1.436,38.768],[1.497,38.712],[1.593,38.701],[1.594,38.672]]],[[[3.145,39.79],[3.241,39.757],[3.342,39.787],[3.396,39.777],[3.449,39.761],[3.462,39.698],[3.415,39.627],[3.349,39.556],[3.293,39.477],[3.245,39.387],[3.155,39.333],[3.073,39.301],[2.9,39.368],[2.8,39.385],[2.77,39.41],[2.746,39.51],[2.701,39.542],[2.634,39.556],[2.576,39.531],[2.5,39.478],[2.459,39.53],[2.394,39.54],[2.37,39.572],[2.371,39.613],[2.785,39.855],[2.905,39.908],[3.159,39.971],[3.198,39.961],[3.164,39.924],[3.167,39.908],[3.199,39.89],[3.191,39.861],[3.159,39.837],[3.145,39.79]]],[[[4.294,39.842],[4.275,39.83],[3.968,39.946],[3.867,39.959],[3.843,39.976],[3.845,40.036],[3.853,40.063],[4.059,40.075],[4.226,40.032],[4.315,39.917],[4.322,39.898],[4.294,39.842]]],[[[1.445,38.919],[1.409,38.857],[1.257,38.879],[1.223,38.904],[1.256,38.973],[1.3,38.982],[1.303,39.031],[1.349,39.081],[1.564,39.121],[1.613,39.087],[1.624,39.039],[1.495,38.933],[1.445,38.919]]],[[[-1.794,43.407],[-1.793,43.373],[-1.753,43.325],[-1.713,43.307],[-1.627,43.282],[-1.561,43.279],[-1.472,43.268],[-1.411,43.24],[-1.407,43.197],[-1.423,43.149],[-1.459,43.105],[-1.48,43.071],[-1.461,43.052],[-1.429,43.037],[-1.394,43.033],[-1.371,43.038],[-1.353,43.064],[-1.319,43.097],[-1.3,43.101],[-1.302,43.082],[-1.285,43.06],[-1.175,43.021],[-0.934,42.95],[-0.839,42.948],[-0.763,42.94],[-0.74,42.91],[-0.586,42.799],[-0.55,42.802],[-0.481,42.799],[-0.398,42.808],[-0.339,42.829],[-0.299,42.825],[-0.256,42.804],[-0.205,42.785],[-0.14,42.749],[-0.081,42.704],[-0.041,42.689],[0.201,42.719],[0.255,42.693],[0.313,42.693],[0.377,42.7],[0.518,42.686],[0.632,42.69],[0.642,42.701],[0.652,42.8],[0.67,42.836],[0.697,42.845],[0.764,42.838],[1.01,42.779],[1.111,42.742],[1.208,42.713],[1.293,42.71],[1.349,42.691],[1.428,42.596],[1.415,42.548],[1.422,42.531],[1.43,42.498],[1.428,42.461],[1.449,42.437],[1.486,42.434],[1.534,42.442],[1.586,42.456],[1.679,42.497],[1.706,42.503],[1.86,42.457],[1.928,42.426],[1.951,42.393],[1.987,42.358],[2.033,42.354],[2.098,42.386],[2.2,42.421],[2.374,42.39],[2.568,42.346],[2.652,42.34],[2.655,42.362],[2.67,42.393],[2.702,42.408],[2.749,42.413],[2.816,42.429],[2.891,42.456],[2.97,42.467],[3.053,42.447],[3.152,42.431],[3.211,42.431],[3.24,42.368],[3.288,42.344],[3.307,42.289],[3.219,42.26],[3.166,42.256],[3.15,42.162],[3.175,42.136],[3.225,42.111],[3.238,42.082],[3.248,41.944],[3.147,41.861],[3.005,41.767],[2.311,41.467],[2.146,41.321],[2.083,41.287],[1.567,41.196],[1.206,41.098],[1.033,41.062],[0.817,40.892],[0.715,40.823],[0.796,40.804],[0.891,40.722],[0.859,40.686],[0.721,40.63],[0.66,40.613],[0.627,40.622],[0.596,40.615],[0.364,40.319],[0.158,40.107],[0.043,40.014],[-0.075,39.876],[-0.327,39.52],[-0.329,39.417],[-0.205,39.063],[-0.134,38.969],[-0.034,38.891],[0.155,38.825],[0.202,38.759],[0.136,38.697],[-0.053,38.586],[-0.381,38.436],[-0.521,38.317],[-0.551,38.203],[-0.647,38.152],[-0.683,37.992],[-0.742,37.886],[-0.753,37.85],[-0.815,37.77],[-0.823,37.712],[-0.722,37.631],[-0.772,37.596],[-0.822,37.581],[-0.938,37.571],[-1.328,37.561],[-1.641,37.387],[-1.798,37.233],[-1.939,36.946],[-2.112,36.777],[-2.188,36.745],[-2.306,36.82],[-2.453,36.831],[-2.596,36.806],[-2.671,36.748],[-2.788,36.715],[-2.902,36.743],[-3.149,36.758],[-3.259,36.756],[-3.431,36.708],[-3.579,36.74],[-3.828,36.756],[-4.367,36.718],[-4.435,36.7],[-4.502,36.629],[-4.674,36.506],[-4.935,36.502],[-5.171,36.424],[-5.231,36.374],[-5.33,36.236],[-5.361,36.135],[-5.382,36.134],[-5.407,36.159],[-5.444,36.151],[-5.462,36.074],[-5.551,36.039],[-5.625,36.026],[-5.808,36.088],[-5.961,36.182],[-6.041,36.188],[-6.17,36.334],[-6.226,36.426],[-6.266,36.527],[-6.258,36.565],[-6.269,36.597],[-6.384,36.637],[-6.412,36.729],[-6.328,36.848],[-6.259,36.899],[-6.217,36.914],[-6.321,36.908],[-6.396,36.832],[-6.492,36.955],[-6.885,37.194],[-6.859,37.249],[-6.864,37.279],[-6.929,37.215],[-6.975,37.198],[-7.175,37.209],[-7.406,37.179],[-7.467,37.428],[-7.496,37.524],[-7.504,37.585],[-7.444,37.728],[-7.379,37.786],[-7.292,37.906],[-7.185,38.006],[-7.073,38.03],[-7.023,38.045],[-6.981,38.122],[-6.958,38.188],[-6.975,38.194],[-7.106,38.181],[-7.343,38.457],[-7.336,38.501],[-7.306,38.567],[-7.286,38.649],[-7.282,38.715],[-7.22,38.771],[-7.125,38.827],[-7.046,38.907],[-7.006,38.985],[-6.998,39.056],[-7.043,39.107],[-7.172,39.135],[-7.306,39.338],[-7.335,39.465],[-7.363,39.478],[-7.445,39.536],[-7.524,39.645],[-7.536,39.662],[-7.454,39.681],[-7.118,39.682],[-7.047,39.706],[-7.037,39.714],[-6.975,39.798],[-6.911,39.937],[-6.896,40.022],[-6.916,40.057],[-7.028,40.143],[-7.033,40.168],[-7.015,40.208],[-6.948,40.252],[-6.859,40.301],[-6.81,40.343],[-6.822,40.376],[-6.848,40.411],[-6.852,40.443],[-6.836,40.483],[-6.83,40.619],[-6.818,40.654],[-6.836,40.777],[-6.858,40.878],[-6.928,41.009],[-6.916,41.038],[-6.883,41.062],[-6.776,41.108],[-6.69,41.215],[-6.566,41.304],[-6.403,41.375],[-6.289,41.455],[-6.244,41.516],[-6.212,41.532],[-6.222,41.56],[-6.243,41.602],[-6.308,41.642],[-6.392,41.665],[-6.485,41.664],[-6.542,41.673],[-6.559,41.704],[-6.553,41.79],[-6.558,41.874],[-6.575,41.913],[-6.618,41.942],[-6.704,41.935],[-6.777,41.958],[-6.833,41.964],[-6.866,41.945],[-7.03,41.951],[-7.099,41.964],[-7.147,41.981],[-7.178,41.972],[-7.195,41.955],[-7.198,41.929],[-7.21,41.895],[-7.269,41.864],[-7.404,41.834],[-7.513,41.836],[-7.613,41.858],[-7.645,41.874],[-7.693,41.888],[-7.896,41.871],[-7.921,41.884],[-7.991,41.852],[-8.094,41.814],[-8.152,41.812],[-8.174,41.82],[-8.181,41.837],[-8.225,41.896],[-8.213,41.927],[-8.13,42.018],[-8.139,42.04],[-8.174,42.069],[-8.204,42.112],[-8.213,42.134],[-8.266,42.137],[-8.323,42.115],[-8.538,42.069],[-8.59,42.053],[-8.683,42.008],[-8.777,41.941],[-8.852,41.927],[-8.878,41.947],[-8.887,42.105],[-8.772,42.211],[-8.691,42.274],[-8.729,42.287],[-8.816,42.285],[-8.81,42.334],[-8.769,42.358],[-8.73,42.412],[-8.776,42.435],[-8.812,42.47],[-8.81,42.562],[-8.8,42.6],[-8.812,42.64],[-8.988,42.586],[-9.033,42.594],[-9.035,42.662],[-8.937,42.767],[-8.927,42.799],[-9.042,42.814],[-9.127,42.865],[-9.179,42.911],[-9.235,42.977],[-9.236,43.036],[-9.178,43.174],[-9.096,43.214],[-9.025,43.239],[-8.874,43.334],[-8.666,43.317],[-8.537,43.337],[-8.422,43.386],[-8.355,43.397],[-8.249,43.439],[-8.252,43.497],[-8.289,43.54],[-8.257,43.58],[-8.137,43.629],[-8.005,43.694],[-7.853,43.707],[-7.698,43.765],[-7.595,43.727],[-7.504,43.74],[-7.399,43.696],[-7.262,43.595],[-7.061,43.554],[-6.901,43.586],[-6.617,43.592],[-6.476,43.579],[-6.224,43.604],[-6.08,43.595],[-5.847,43.645],[-5.666,43.582],[-5.316,43.553],[-5.105,43.502],[-4.523,43.416],[-4.313,43.415],[-4.015,43.463],[-3.889,43.499],[-3.774,43.478],[-3.605,43.519],[-3.524,43.511],[-3.418,43.452],[-3.046,43.372],[-2.948,43.44],[-2.875,43.454],[-2.607,43.413],[-2.337,43.328],[-2.197,43.322],[-1.991,43.345],[-1.829,43.401],[-1.794,43.407]]]]}},{"type":"Feature","properties":{"code":"SMR","name":"Saint-Marin"},"geometry":{"type":"MultiPolygon","coordinates":[[[[12.485,43.901],[12.426,43.894],[12.397,43.935],[12.441,43.982],[12.504,43.99],[12.515,43.953],[12.485,43.901]]]]}},{"type":"Feature","properties":{"code":"PRT","name":"Portugal"},"geometry":{"type":"MultiPolygon","coordinates":[[[[-8.777,41.941],[-8.683,42.008],[-8.59,42.053],[-8.538,42.069],[-8.323,42.115],[-8.266,42.137],[-8.213,42.134],[-8.204,42.112],[-8.174,42.069],[-8.139,42.04],[-8.13,42.018],[-8.213,41.927],[-8.225,41.896],[-8.181,41.837],[-8.174,41.82],[-8.152,41.812],[-8.094,41.814],[-7.991,41.852],[-7.921,41.884],[-7.896,41.871],[-7.693,41.888],[-7.645,41.874],[-7.613,41.858],[-7.513,41.836],[-7.404,41.834],[-7.269,41.864],[-7.21,41.895],[-7.198,41.929],[-7.195,41.955],[-7.178,41.972],[-7.147,41.981],[-7.099,41.964],[-7.03,41.951],[-6.866,41.945],[-6.833,41.964],[-6.777,41.958],[-6.704,41.935],[-6.618,41.942],[-6.575,41.913],[-6.558,41.874],[-6.553,41.79],[-6.559,41.704],[-6.542,41.673],[-6.485,41.664],[-6.392,41.665],[-6.308,41.642],[-6.243,41.602],[-6.222,41.56],[-6.212,41.532],[-6.244,41.516],[-6.289,41.455],[-6.403,41.375],[-6.566,41.304],[-6.69,41.215],[-6.776,41.108],[-6.883,41.062],[-6.916,41.038],[-6.928,41.009],[-6.858,40.878],[-6.836,40.777],[-6.818,40.654],[-6.83,40.619],[-6.836,40.483],[-6.852,40.443],[-6.848,40.411],[-6.822,40.376],[-6.81,40.343],[-6.859,40.301],[-6.948,40.252],[-7.015,40.208],[-7.033,40.168],[-7.028,40.143],[-6.916,40.057],[-6.896,40.022],[-6.911,39.937],[-6.975,39.798],[-7.037,39.714],[-7.047,39.706],[-7.118,39.682],[-7.454,39.681],[-7.536,39.662],[-7.524,39.645],[-7.445,39.536],[-7.363,39.478],[-7.335,39.465],[-7.306,39.338],[-7.172,39.135],[-7.043,39.107],[-6.998,39.056],[-7.006,38.985],[-7.046,38.907],[-7.125,38.827],[-7.22,38.771],[-7.282,38.715],[-7.286,38.649],[-7.306,38.567],[-7.336,38.501],[-7.343,38.457],[-7.106,38.181],[-6.975,38.194],[-6.958,38.188],[-6.981,38.122],[-7.023,38.045],[-7.073,38.03],[-7.185,38.006],[-7.292,37.906],[-7.379,37.786],[-7.444,37.728],[-7.504,37.585],[-7.496,37.524],[-7.467,37.428],[-7.406,37.179],[-7.494,37.168],[-7.834,37.006],[-7.94,37.005],[-8.137,37.077],[-8.484,37.1],[-8.598,37.121],[-8.739,37.075],[-8.848,37.076],[-8.935,37.016],[-8.998,37.032],[-8.926,37.166],[-8.814,37.431],[-8.819,37.592],[-8.792,37.733],[-8.823,37.872],[-8.879,37.959],[-8.802,38.184],[-8.811,38.3],[-8.881,38.447],[-8.668,38.424],[-8.734,38.482],[-8.799,38.518],[-8.862,38.51],[-8.915,38.512],[-9.096,38.455],[-9.187,38.438],[-9.213,38.448],[-9.203,38.539],[-9.25,38.657],[-9.178,38.688],[-9.093,38.697],[-9.021,38.747],[-8.977,38.803],[-9,38.903],[-8.938,38.998],[-8.792,39.078],[-8.867,39.066],[-8.954,39.016],[-9.091,38.835],[-9.136,38.743],[-9.252,38.713],[-9.357,38.698],[-9.41,38.708],[-9.474,38.731],[-9.48,38.799],[-9.475,38.853],[-9.431,38.96],[-9.414,39.112],[-9.353,39.248],[-9.357,39.284],[-9.375,39.338],[-9.32,39.391],[-9.251,39.426],[-9.148,39.543],[-9.004,39.821],[-8.838,40.116],[-8.851,40.152],[-8.887,40.179],[-8.873,40.259],[-8.772,40.606],[-8.732,40.651],[-8.685,40.753],[-8.674,40.917],[-8.656,41.029],[-8.66,41.086],[-8.675,41.154],[-8.738,41.285],[-8.806,41.56],[-8.811,41.652],[-8.755,41.698],[-8.846,41.705],[-8.888,41.765],[-8.878,41.832],[-8.777,41.941]]]]}},{"type":"Feature","properties":{"code":"NLD","name":"Pays-Bas"},"geometry":{"type":"MultiPolygon","coordinates":[[[[5.994,50.75],[5.892,50.753],[5.797,50.755],[5.747,50.76],[5.694,50.775],[5.669,50.806],[5.639,50.844],[5.648,50.867],[5.737,50.932],[5.75,50.95],[5.741,50.96],[5.75,50.989],[5.818,51.086],[5.827,51.126],[5.796,51.153],[5.752,51.169],[5.609,51.198],[5.54,51.239],[5.509,51.275],[5.477,51.285],[5.43,51.273],[5.311,51.26],[5.214,51.279],[5.1,51.346],[5.073,51.407],[5.059,51.453],[5.031,51.469],[4.993,51.445],[4.944,51.408],[4.848,51.403],[4.821,51.412],[4.816,51.433],[4.811,51.453],[4.784,51.477],[4.756,51.491],[4.634,51.422],[4.589,51.422],[4.532,51.449],[4.503,51.475],[4.441,51.46],[4.385,51.428],[4.404,51.367],[4.374,51.356],[4.304,51.362],[4.226,51.386],[4.139,51.402],[4.007,51.443],[3.822,51.409],[3.694,51.45],[3.587,51.454],[3.521,51.486],[3.449,51.541],[3.5,51.577],[3.549,51.589],[3.744,51.596],[3.886,51.574],[4.141,51.456],[4.206,51.457],[4.274,51.472],[4.239,51.504],[4.175,51.519],[4.08,51.551],[4.005,51.596],[4.183,51.61],[4.158,51.633],[4.135,51.673],[3.947,51.811],[3.979,51.848],[4.026,51.928],[4.085,51.994],[4.132,52.012],[4.209,52.059],[4.376,52.197],[4.483,52.309],[4.562,52.443],[4.678,52.81],[4.713,52.872],[4.769,52.941],[4.839,52.928],[4.888,52.908],[5.061,52.961],[5.358,53.096],[5.446,53.214],[5.532,53.269],[5.874,53.375],[6.062,53.407],[6.353,53.415],[6.564,53.434],[6.816,53.441],[6.912,53.375],[6.968,53.327],[7.058,53.301],[7.197,53.282],[7.189,53.187],[7.19,53],[7.179,52.966],[7.117,52.887],[7.051,52.745],[7.033,52.651],[7.013,52.634],[6.748,52.634],[6.711,52.618],[6.705,52.598],[6.719,52.574],[6.712,52.55],[6.692,52.53],[6.703,52.499],[6.749,52.464],[6.833,52.442],[6.922,52.44],[6.968,52.444],[7.002,52.419],[7.035,52.38],[7.033,52.331],[7.02,52.266],[6.977,52.206],[6.855,52.136],[6.8,52.111],[6.749,52.099],[6.725,52.08],[6.713,52.057],[6.716,52.036],[6.802,51.98],[6.8,51.967],[6.775,51.938],[6.742,51.911],[6.518,51.854],[6.425,51.858],[6.372,51.83],[6.356,51.825],[6.297,51.851],[6.167,51.881],[6.117,51.87],[6.09,51.854],[6.008,51.834],[5.949,51.803],[5.949,51.762],[6.053,51.658],[6.089,51.638],[6.091,51.599],[6.142,51.55],[6.193,51.489],[6.199,51.45],[6.193,51.411],[6.166,51.355],[6.076,51.224],[6.075,51.199],[6.082,51.18],[6.113,51.175],[6.137,51.165],[6.13,51.147],[5.961,51.057],[5.939,51.041],[5.868,51.045],[5.858,51.03],[5.867,51.006],[5.895,50.984],[5.955,50.973],[6.007,50.95],[6.048,50.905],[5.994,50.75]]],[[[4.226,51.386],[4.211,51.349],[4.173,51.307],[4.04,51.247],[3.902,51.208],[3.831,51.213],[3.782,51.233],[3.756,51.255],[3.682,51.276],[3.58,51.286],[3.517,51.264],[3.472,51.242],[3.433,51.246],[3.403,51.264],[3.38,51.291],[3.35,51.378],[3.426,51.394],[3.589,51.399],[3.717,51.369],[3.883,51.354],[4.011,51.396],[4.112,51.361],[4.226,51.386]]],[[[6.333,53.511],[6.193,53.477],[6.159,53.484],[6.168,53.494],[6.291,53.515],[6.333,53.511]]],[[[5.929,53.459],[5.732,53.443],[5.665,53.455],[5.654,53.467],[5.708,53.473],[5.876,53.475],[5.928,53.465],[5.929,53.459]]],[[[5.109,53.308],[4.924,53.235],[4.908,53.246],[5.027,53.31],[5.109,53.308]]],[[[5.326,53.386],[5.233,53.378],[5.19,53.392],[5.415,53.431],[5.557,53.444],[5.583,53.438],[5.326,53.386]]],[[[4.886,53.071],[4.787,53],[4.727,53.02],[4.709,53.036],[4.74,53.091],[4.886,53.183],[4.886,53.071]]],[[[3.949,51.739],[4.047,51.685],[4.068,51.667],[4.075,51.649],[3.951,51.627],[3.819,51.694],[3.732,51.678],[3.699,51.71],[3.699,51.73],[3.789,51.746],[3.949,51.739]]],[[[6.735,53.583],[6.642,53.579],[6.669,53.606],[6.755,53.625],[6.801,53.625],[6.735,53.583]]]]}},{"type":"Feature","properties":{"code":"MCO","name":"Monaco"},"geometry":{"type":"MultiPolygon","coordinates":[[[[7.439,43.75],[7.378,43.732],[7.38,43.753],[7.395,43.765],[7.414,43.771],[7.437,43.761],[7.439,43.75]]]]}},{"type":"Feature","properties":{"code":"LUX","name":"Luxembourg"},"geometry":{"type":"MultiPolygon","coordinates":[[[[6.117,50.121],[6.108,50.094],[6.11,50.034],[6.138,49.974],[6.205,49.915],[6.256,49.872],[6.325,49.838],[6.441,49.805],[6.487,49.798],[6.494,49.754],[6.485,49.708],[6.445,49.682],[6.407,49.645],[6.378,49.6],[6.348,49.513],[6.344,49.453],[6.277,49.478],[6.242,49.494],[6.181,49.499],[6.12,49.485],[6.074,49.455],[6.011,49.445],[5.959,49.455],[5.929,49.478],[5.901,49.49],[5.823,49.505],[5.79,49.538],[5.815,49.554],[5.838,49.578],[5.857,49.613],[5.88,49.645],[5.804,49.732],[5.788,49.759],[5.725,49.808],[5.726,49.833],[5.741,49.857],[5.735,49.876],[5.744,49.92],[5.788,49.961],[5.817,50.013],[5.867,50.083],[5.976,50.167],[6.055,50.154],[6.089,50.155],[6.11,50.124],[6.117,50.121]]]]}},{"type":"Feature","properties":{"code":"LIE","name":"Liechtenstein"},"geometry":{"type":"MultiPolygon","coordinates":[[[[9.58,47.057],[9.502,47.063],[9.488,47.062],[9.479,47.098],[9.484,47.173],[9.528,47.271],[9.537,47.255],[9.542,47.234],[9.551,47.212],[9.556,47.185],[9.572,47.158],[9.601,47.132],[9.611,47.107],[9.596,47.076],[9.58,47.057]]]]}},{"type":"Feature","properties":{"code":"ITA","name":"Italie"},"geometry":{"type":"MultiPolygon","coordinates":[[[[7.021,45.926],[7.056,45.904],[7.129,45.88],[7.328,45.912],[7.452,45.944],[7.539,45.978],[7.593,45.972],[7.788,45.922],[7.852,45.947],[7.993,46.016],[8.014,46.052],[8.125,46.161],[8.127,46.188],[8.082,46.256],[8.096,46.271],[8.232,46.341],[8.299,46.403],[8.371,46.445],[8.423,46.446],[8.437,46.432],[8.443,46.403],[8.438,46.283],[8.458,46.246],[8.565,46.16],[8.642,46.111],[8.819,46.077],[8.827,46.061],[8.778,45.996],[8.885,45.919],[8.904,45.862],[8.954,45.83],[9.024,45.846],[9.047,45.876],[9.019,45.928],[8.999,45.983],[9.003,46.015],[9.022,46.051],[9.071,46.102],[9.203,46.219],[9.251,46.287],[9.26,46.391],[9.26,46.475],[9.304,46.496],[9.399,46.481],[9.428,46.482],[9.441,46.431],[9.481,46.349],[9.529,46.306],[9.58,46.296],[9.639,46.296],[9.788,46.346],[9.884,46.368],[9.939,46.362],[9.972,46.328],[10.041,46.238],[10.081,46.228],[10.128,46.238],[10.145,46.254],[10.13,46.288],[10.11,46.363],[10.082,46.421],[10.046,46.448],[10.038,46.483],[10.061,46.547],[10.087,46.6],[10.138,46.614],[10.196,46.621],[10.272,46.565],[10.363,46.547],[10.431,46.55],[10.442,46.583],[10.438,46.619],[10.398,46.665],[10.406,46.735],[10.453,46.865],[10.479,46.855],[10.58,46.854],[10.689,46.846],[10.76,46.793],[10.829,46.775],[10.927,46.769],[10.993,46.777],[11.025,46.797],[11.063,46.859],[11.134,46.936],[11.244,46.976],[11.433,46.983],[11.528,46.997],[11.625,46.997],[11.699,46.985],[11.776,46.986],[11.97,47.04],[12.169,47.082],[12.197,47.075],[12.201,47.061],[12.166,47.028],[12.131,46.985],[12.154,46.935],[12.268,46.836],[12.33,46.76],[12.388,46.703],[12.479,46.673],[12.599,46.654],[12.7,46.647],[12.806,46.626],[13.169,46.573],[13.352,46.558],[13.49,46.556],[13.7,46.52],[13.68,46.463],[13.637,46.449],[13.563,46.415],[13.479,46.369],[13.4,46.318],[13.378,46.262],[13.4,46.225],[13.421,46.212],[13.45,46.224],[13.492,46.217],[13.545,46.197],[13.633,46.177],[13.635,46.158],[13.617,46.133],[13.548,46.089],[13.486,46.04],[13.48,46.009],[13.488,45.987],[13.509,45.974],[13.601,45.98],[13.614,45.962],[13.57,45.834],[13.583,45.812],[13.663,45.792],[13.722,45.761],[13.831,45.68],[13.875,45.615],[13.845,45.593],[13.776,45.582],[13.72,45.588],[13.783,45.627],[13.628,45.771],[13.558,45.771],[13.465,45.71],[13.206,45.771],[13.157,45.747],[13.12,45.698],[13.03,45.638],[12.903,45.611],[12.761,45.544],[12.612,45.497],[12.498,45.462],[12.432,45.468],[12.536,45.545],[12.492,45.546],[12.354,45.492],[12.274,45.446],[12.249,45.369],[12.226,45.242],[12.286,45.208],[12.392,45.04],[12.523,44.968],[12.498,44.899],[12.464,44.845],[12.384,44.798],[12.319,44.833],[12.279,44.832],[12.248,44.723],[12.305,44.429],[12.396,44.224],[12.487,44.134],[12.691,43.995],[12.907,43.921],[13.295,43.686],[13.508,43.612],[13.564,43.571],[13.693,43.39],[13.805,43.18],[13.925,42.852],[14.01,42.69],[14.183,42.506],[14.541,42.244],[14.866,42.053],[15.169,41.934],[15.405,41.913],[15.964,41.939],[16.062,41.928],[16.165,41.896],[16.189,41.814],[16.151,41.758],[16.034,41.701],[15.914,41.621],[15.9,41.512],[16.013,41.435],[16.552,41.232],[17.103,41.062],[17.275,40.975],[17.474,40.841],[17.955,40.655],[18.036,40.565],[18.328,40.371],[18.461,40.221],[18.486,40.105],[18.423,39.987],[18.393,39.904],[18.344,39.821],[18.219,39.853],[18.078,39.937],[17.865,40.28],[17.476,40.315],[17.396,40.34],[17.258,40.399],[17.249,40.438],[17.215,40.486],[17.18,40.503],[17.031,40.513],[16.928,40.458],[16.807,40.326],[16.67,40.137],[16.53,39.86],[16.522,39.748],[16.598,39.639],[16.824,39.578],[16.999,39.482],[17.115,39.381],[17.123,39.137],[17.175,38.998],[17.099,38.919],[16.951,38.94],[16.755,38.89],[16.617,38.8],[16.559,38.715],[16.574,38.494],[16.546,38.409],[16.282,38.25],[16.144,38.086],[16.11,38.019],[16.057,37.942],[15.725,37.939],[15.646,38.034],[15.643,38.175],[15.7,38.262],[15.822,38.303],[15.905,38.483],[15.879,38.614],[15.927,38.672],[15.972,38.713],[16.066,38.736],[16.197,38.759],[16.21,38.941],[16.107,39.024],[16.071,39.139],[16.024,39.354],[15.854,39.627],[15.764,39.87],[15.693,39.99],[15.585,40.053],[15.391,40.052],[15.295,40.07],[14.951,40.239],[14.927,40.265],[14.929,40.31],[14.986,40.377],[14.948,40.469],[14.907,40.556],[14.84,40.63],[14.766,40.668],[14.611,40.645],[14.557,40.626],[14.459,40.633],[14.383,40.6],[14.34,40.599],[14.461,40.729],[14.428,40.759],[14.309,40.813],[14.147,40.821],[14.102,40.827],[14.076,40.794],[14.044,40.812],[14.048,40.87],[13.86,41.13],[13.733,41.236],[13.67,41.254],[13.555,41.232],[13.362,41.279],[13.247,41.289],[13.183,41.278],[13.089,41.244],[13.041,41.266],[13.024,41.301],[12.849,41.409],[12.631,41.47],[12.206,41.813],[12.075,41.941],[11.807,42.082],[11.637,42.288],[11.498,42.363],[11.296,42.423],[11.25,42.416],[11.189,42.393],[11.141,42.39],[11.103,42.417],[11.142,42.444],[11.185,42.457],[11.168,42.535],[10.938,42.739],[10.803,42.804],[10.765,42.845],[10.737,42.9],[10.708,42.936],[10.645,42.957],[10.59,42.954],[10.515,42.968],[10.517,43.065],[10.532,43.14],[10.521,43.204],[10.448,43.371],[10.321,43.513],[10.246,43.852],[10.188,43.948],[10.048,44.02],[9.731,44.101],[9.289,44.319],[9.196,44.323],[8.93,44.408],[8.766,44.422],[8.552,44.346],[8.292,44.137],[8.082,43.919],[8.005,43.877],[7.733,43.803],[7.493,43.767],[7.491,43.823],[7.482,43.865],[7.523,43.911],[7.59,43.965],[7.651,44.034],[7.677,44.083],[7.665,44.116],[7.637,44.165],[7.599,44.168],[7.371,44.127],[7.319,44.138],[7.149,44.202],[6.967,44.28],[6.9,44.336],[6.875,44.392],[6.894,44.428],[6.879,44.463],[6.843,44.511],[6.875,44.565],[6.932,44.632],[6.96,44.677],[7.008,44.689],[7.031,44.717],[6.993,44.827],[6.973,44.845],[6.94,44.859],[6.889,44.86],[6.801,44.883],[6.738,44.921],[6.725,44.973],[6.691,45.023],[6.635,45.068],[6.628,45.118],[6.692,45.144],[6.78,45.145],[6.842,45.136],[6.981,45.216],[7.032,45.223],[7.078,45.24],[7.117,45.349],[7.146,45.382],[7.153,45.401],[7.126,45.424],[7.014,45.5],[6.962,45.581],[6.881,45.67],[6.806,45.71],[6.791,45.741],[6.789,45.78],[6.804,45.815],[6.941,45.868],[7.021,45.926]],[[12.439,41.898],[12.438,41.906],[12.431,41.905],[12.428,41.901],[12.431,41.898],[12.439,41.898]],[[12.485,43.901],[12.515,43.953],[12.504,43.99],[12.441,43.982],[12.397,43.935],[12.426,43.894],[12.485,43.901]]],[[[10.395,42.858],[10.428,42.819],[10.432,42.797],[10.41,42.771],[10.419,42.713],[10.336,42.761],[10.209,42.737],[10.131,42.742],[10.11,42.785],[10.128,42.81],[10.248,42.816],[10.286,42.828],[10.359,42.822],[10.395,42.858]]],[[[13.938,40.706],[13.894,40.697],[13.868,40.709],[13.854,40.724],[13.871,40.762],[13.962,40.739],[13.961,40.718],[13.938,40.706]]],[[[12.051,36.757],[12.003,36.746],[11.941,36.78],[11.936,36.829],[11.948,36.843],[12.024,36.821],[12.048,36.776],[12.051,36.757]]],[[[15.577,38.22],[15.509,38.107],[15.476,38.063],[15.234,37.785],[15.207,37.721],[15.19,37.651],[15.165,37.59],[15.131,37.532],[15.1,37.459],[15.106,37.375],[15.117,37.335],[15.146,37.308],[15.194,37.283],[15.23,37.244],[15.174,37.209],[15.236,37.139],[15.289,37.097],[15.296,37.055],[15.295,37.013],[15.185,36.935],[15.142,36.892],[15.116,36.839],[15.104,36.785],[15.116,36.736],[15.113,36.688],[15.002,36.694],[14.89,36.724],[14.776,36.71],[14.614,36.767],[14.555,36.777],[14.502,36.799],[14.367,36.973],[14.259,37.046],[14.143,37.104],[14.024,37.107],[13.905,37.101],[13.801,37.136],[13.587,37.254],[13.361,37.349],[13.265,37.41],[13.221,37.452],[13.17,37.479],[13.04,37.507],[12.924,37.571],[12.871,37.575],[12.757,37.567],[12.699,37.572],[12.64,37.594],[12.527,37.67],[12.454,37.774],[12.436,37.82],[12.487,37.939],[12.548,38.053],[12.602,38.085],[12.664,38.108],[12.702,38.142],[12.734,38.183],[12.851,38.064],[12.903,38.035],[12.955,38.041],[13.049,38.084],[13.057,38.131],[13.16,38.19],[13.291,38.191],[13.352,38.181],[13.383,38.127],[13.433,38.11],[13.491,38.103],[13.682,38.001],[13.735,37.984],[13.789,37.981],[13.937,38.024],[14.05,38.041],[14.288,38.017],[14.416,38.043],[14.506,38.046],[14.637,38.085],[14.737,38.151],[14.79,38.167],[14.846,38.172],[14.982,38.168],[15.119,38.153],[15.176,38.168],[15.224,38.211],[15.28,38.23],[15.341,38.217],[15.499,38.291],[15.568,38.296],[15.635,38.268],[15.577,38.22]]],[[[9.632,40.882],[9.682,40.818],[9.794,40.556],[9.805,40.5],[9.783,40.442],[9.754,40.4],[9.643,40.268],[9.659,40.159],[9.701,40.092],[9.707,40.017],[9.686,39.924],[9.617,39.354],[9.584,39.254],[9.563,39.166],[9.486,39.14],[9.388,39.168],[9.264,39.217],[9.207,39.214],[9.149,39.197],[9.102,39.211],[9.056,39.239],[9.023,39.043],[8.967,38.964],[8.881,38.913],[8.801,38.91],[8.719,38.927],[8.649,38.927],[8.595,38.964],[8.553,39.03],[8.486,39.11],[8.418,39.206],[8.411,39.292],[8.399,39.482],[8.419,39.523],[8.447,39.563],[8.461,39.648],[8.451,39.722],[8.471,39.748],[8.511,39.722],[8.541,39.732],[8.539,39.77],[8.548,39.839],[8.496,39.897],[8.408,39.917],[8.399,39.978],[8.409,40.038],[8.455,40.078],[8.471,40.131],[8.471,40.293],[8.409,40.352],[8.385,40.443],[8.353,40.501],[8.296,40.559],[8.23,40.606],[8.19,40.652],[8.181,40.771],[8.204,40.871],[8.224,40.913],[8.245,40.907],[8.31,40.858],[8.363,40.846],[8.468,40.834],[8.572,40.85],[8.699,40.895],[8.821,40.95],[8.998,41.11],[9.107,41.143],[9.163,41.185],[9.182,41.242],[9.228,41.257],[9.283,41.202],[9.351,41.196],[9.455,41.15],[9.5,41.106],[9.539,41.054],[9.576,41.031],[9.615,41.017],[9.621,41.005],[9.59,40.992],[9.554,40.932],[9.574,40.915],[9.632,40.882]]],[[[8.479,39.068],[8.421,38.969],[8.361,39.039],[8.359,39.099],[8.367,39.116],[8.441,39.091],[8.479,39.068]]],[[[8.286,41.04],[8.253,40.994],[8.206,40.997],[8.224,41.031],[8.267,41.099],[8.32,41.122],[8.344,41.102],[8.319,41.063],[8.286,41.04]]]]}},{"type":"Feature","properties":{"code":"IRL","name":"Irlande"},"geometry":{"type":"MultiPolygon","coordinates":[[[[-9.948,53.913],[-9.952,53.885],[-10.027,53.921],[-10.062,53.96],[-10.266,53.978],[-10.181,54.017],[-10.14,54.005],[-9.996,54.004],[-9.956,53.987],[-9.948,53.913]]],[[[-7.219,55.092],[-7.377,55.028],[-7.401,55.003],[-7.446,54.905],[-7.451,54.877],[-7.502,54.825],[-7.55,54.768],[-7.606,54.746],[-7.69,54.728],[-7.737,54.71],[-7.797,54.719],[-7.873,54.718],[-7.911,54.698],[-7.909,54.683],[-7.886,54.666],[-7.82,54.64],[-7.746,54.616],[-7.754,54.595],[-7.794,54.571],[-8.044,54.512],[-8.119,54.477],[-8.145,54.454],[-8.118,54.414],[-7.918,54.297],[-7.884,54.284],[-7.855,54.215],[-7.679,54.187],[-7.607,54.144],[-7.544,54.134],[-7.409,54.137],[-7.355,54.121],[-7.325,54.133],[-7.307,54.156],[-7.193,54.214],[-7.155,54.24],[-7.178,54.275],[-7.203,54.302],[-7.133,54.355],[-7.05,54.408],[-7.008,54.407],[-6.936,54.374],[-6.877,54.329],[-6.869,54.294],[-6.858,54.269],[-6.803,54.214],[-6.767,54.196],[-6.67,54.185],[-6.647,54.163],[-6.664,54.085],[-6.65,54.059],[-6.548,54.057],[-6.44,54.064],[-6.403,54.061],[-6.364,54.077],[-6.304,54.095],[-6.218,54.089],[-6.176,54.054],[-6.157,54.017],[-6.231,54.004],[-6.308,54.011],[-6.345,53.987],[-6.348,53.941],[-6.322,53.882],[-6.27,53.84],[-6.229,53.746],[-6.195,53.641],[-6.142,53.578],[-6.131,53.499],[-6.139,53.46],[-6.129,53.391],[-6.152,53.366],[-6.135,53.301],[-6.072,53.166],[-6.045,53.091],[-6.027,52.927],[-6.071,52.866],[-6.131,52.807],[-6.169,52.738],[-6.199,52.663],[-6.217,52.543],[-6.345,52.402],[-6.4,52.367],[-6.463,52.345],[-6.325,52.247],[-6.438,52.203],[-6.561,52.189],[-6.697,52.214],[-6.782,52.21],[-6.86,52.179],[-6.89,52.159],[-6.915,52.169],[-6.966,52.25],[-7.003,52.166],[-7.082,52.139],[-7.216,52.145],[-7.441,52.123],[-7.527,52.099],[-7.563,52.062],[-7.59,52.019],[-7.625,51.993],[-7.665,51.98],[-7.838,51.948],[-7.872,51.935],[-7.952,51.866],[-8.058,51.826],[-8.145,51.814],[-8.222,51.854],[-8.254,51.878],[-8.29,51.891],[-8.409,51.889],[-8.372,51.876],[-8.347,51.848],[-8.336,51.793],[-8.349,51.739],[-8.408,51.712],[-8.478,51.707],[-8.588,51.651],[-8.734,51.636],[-8.813,51.585],[-9.296,51.498],[-9.324,51.497],[-9.391,51.519],[-9.463,51.529],[-9.535,51.522],[-9.737,51.474],[-9.835,51.483],[-9.71,51.604],[-9.542,51.664],[-9.525,51.681],[-9.58,51.689],[-9.899,51.647],[-10.01,51.611],[-10.121,51.601],[-10.069,51.656],[-9.926,51.731],[-9.85,51.766],[-9.803,51.78],[-9.75,51.824],[-9.599,51.874],[-10.084,51.771],[-10.212,51.784],[-10.242,51.812],[-10.341,51.799],[-10.379,51.869],[-10.232,51.975],[-10.146,52.02],[-10.044,52.045],[-9.946,52.08],[-9.91,52.123],[-9.956,52.137],[-10.25,52.126],[-10.39,52.135],[-10.383,52.169],[-10.357,52.207],[-10.211,52.272],[-10.132,52.282],[-10.062,52.276],[-9.993,52.259],[-9.937,52.238],[-9.772,52.25],[-9.841,52.291],[-9.853,52.375],[-9.906,52.404],[-9.838,52.443],[-9.761,52.466],[-9.632,52.547],[-9.586,52.559],[-9.331,52.579],[-9.056,52.621],[-8.783,52.68],[-8.923,52.712],[-8.99,52.755],[-9.098,52.668],[-9.175,52.635],[-9.394,52.617],[-9.463,52.627],[-9.561,52.654],[-9.591,52.644],[-9.62,52.623],[-9.764,52.58],[-9.917,52.57],[-9.74,52.648],[-9.515,52.781],[-9.465,52.823],[-9.394,52.896],[-9.416,52.929],[-9.462,52.947],[-9.299,53.098],[-9.242,53.125],[-9.138,53.129],[-9.061,53.153],[-9.027,53.153],[-8.997,53.162],[-8.93,53.207],[-9.034,53.236],[-9.14,53.25],[-9.471,53.235],[-9.514,53.238],[-9.555,53.252],[-9.582,53.272],[-9.602,53.323],[-9.626,53.334],[-9.701,53.334],[-9.774,53.319],[-9.825,53.32],[-9.876,53.343],[-9.795,53.395],[-9.899,53.407],[-10.004,53.397],[-10.091,53.413],[-10.094,53.446],[-10.054,53.478],[-10.106,53.509],[-10.117,53.549],[-10.062,53.568],[-10.001,53.561],[-9.878,53.59],[-9.721,53.604],[-9.856,53.633],[-9.91,53.658],[-9.912,53.695],[-9.902,53.727],[-9.745,53.781],[-9.578,53.805],[-9.591,53.841],[-9.579,53.88],[-9.748,53.891],[-9.914,53.864],[-9.896,53.938],[-9.856,54.004],[-9.848,54.048],[-9.856,54.095],[-9.934,54.075],[-9.944,54.142],[-9.977,54.187],[-10.093,54.156],[-10.09,54.216],[-10.056,54.258],[-9.996,54.276],[-9.936,54.268],[-9.825,54.269],[-9.717,54.3],[-9.562,54.309],[-9.316,54.299],[-9.146,54.21],[-9.102,54.226],[-9.034,54.282],[-9.002,54.288],[-8.747,54.263],[-8.588,54.231],[-8.546,54.241],[-8.568,54.304],[-8.623,54.347],[-8.554,54.404],[-8.471,54.442],[-8.415,54.461],[-8.287,54.485],[-8.23,54.507],[-8.193,54.58],[-8.133,54.641],[-8.457,54.609],[-8.764,54.681],[-8.715,54.732],[-8.65,54.761],[-8.538,54.783],[-8.528,54.809],[-8.471,54.832],[-8.377,54.889],[-8.412,54.965],[-8.393,55.02],[-8.326,55.056],[-8.305,55.108],[-8.275,55.146],[-8.138,55.16],[-8.006,55.195],[-7.959,55.192],[-7.803,55.2],[-7.751,55.186],[-7.763,55.248],[-7.667,55.256],[-7.63,55.244],[-7.613,55.2],[-7.57,55.171],[-7.557,55.122],[-7.586,55.084],[-7.634,55.055],[-7.59,55.025],[-7.659,54.971],[-7.584,54.994],[-7.478,55.047],[-7.484,55.09],[-7.502,55.145],[-7.531,55.194],[-7.518,55.248],[-7.458,55.282],[-7.302,55.299],[-7.366,55.36],[-7.309,55.366],[-7.247,55.353],[-7.155,55.305],[-7.06,55.268],[-6.962,55.238],[-7.056,55.178],[-7.173,55.137],[-7.219,55.092]]]]}},{"type":"Feature","properties":{"code":"DEU","name":"Allemagne"},"geometry":{"type":"MultiPolygon","coordinates":[[[[9.524,47.524],[9.35,47.599],[9.183,47.671],[9.128,47.671],[8.881,47.656],[8.874,47.663],[8.831,47.704],[8.793,47.717],[8.77,47.71],[8.755,47.698],[8.728,47.7],[8.618,47.766],[8.573,47.776],[8.51,47.767],[8.436,47.731],[8.403,47.688],[8.413,47.663],[8.452,47.652],[8.552,47.659],[8.567,47.652],[8.571,47.638],[8.559,47.624],[8.478,47.613],[8.454,47.596],[8.43,47.592],[8.415,47.59],[8.328,47.607],[8.198,47.607],[8.094,47.576],[7.927,47.564],[7.698,47.57],[7.616,47.593],[7.565,47.607],[7.529,47.674],[7.539,47.774],[7.593,47.906],[7.608,48.003],[7.584,48.064],[7.617,48.157],[7.706,48.28],[7.765,48.41],[7.795,48.547],[7.838,48.636],[7.923,48.699],[8.124,48.873],[8.14,48.886],[8.135,48.974],[8.081,48.986],[8.001,49.011],[7.799,49.042],[7.611,49.062],[7.525,49.086],[7.451,49.152],[7.404,49.153],[7.313,49.13],[7.2,49.114],[7.117,49.128],[7.066,49.125],[7.037,49.113],[7.022,49.123],[7.001,49.18],[6.958,49.195],[6.891,49.208],[6.85,49.202],[6.821,49.174],[6.776,49.154],[6.735,49.161],[6.608,49.291],[6.575,49.32],[6.566,49.346],[6.534,49.395],[6.458,49.443],[6.382,49.458],[6.344,49.453],[6.348,49.513],[6.378,49.6],[6.407,49.645],[6.445,49.682],[6.485,49.708],[6.494,49.754],[6.487,49.798],[6.441,49.805],[6.325,49.838],[6.256,49.872],[6.205,49.915],[6.138,49.974],[6.11,50.034],[6.108,50.094],[6.117,50.121],[6.121,50.139],[6.175,50.233],[6.364,50.316],[6.344,50.4],[6.341,50.452],[6.295,50.485],[6.203,50.499],[6.179,50.523],[6.168,50.545],[6.236,50.597],[6.154,50.637],[6.119,50.679],[6.006,50.732],[5.994,50.75],[6.048,50.905],[6.007,50.95],[5.955,50.973],[5.895,50.984],[5.867,51.006],[5.858,51.03],[5.868,51.045],[5.939,51.041],[5.961,51.057],[6.13,51.147],[6.137,51.165],[6.113,51.175],[6.082,51.18],[6.075,51.199],[6.076,51.224],[6.166,51.355],[6.193,51.411],[6.199,51.45],[6.193,51.489],[6.142,51.55],[6.091,51.599],[6.089,51.638],[6.053,51.658],[5.949,51.762],[5.949,51.803],[6.008,51.834],[6.09,51.854],[6.117,51.87],[6.167,51.881],[6.297,51.851],[6.356,51.825],[6.372,51.83],[6.425,51.858],[6.518,51.854],[6.742,51.911],[6.775,51.938],[6.8,51.967],[6.802,51.98],[6.716,52.036],[6.713,52.057],[6.725,52.08],[6.749,52.099],[6.8,52.111],[6.855,52.136],[6.977,52.206],[7.02,52.266],[7.033,52.331],[7.035,52.38],[7.002,52.419],[6.968,52.444],[6.922,52.44],[6.833,52.442],[6.749,52.464],[6.703,52.499],[6.692,52.53],[6.712,52.55],[6.719,52.574],[6.705,52.598],[6.711,52.618],[6.748,52.634],[7.013,52.634],[7.033,52.651],[7.051,52.745],[7.117,52.887],[7.179,52.966],[7.19,53],[7.189,53.187],[7.197,53.282],[7.152,53.327],[7.053,53.376],[7.074,53.478],[7.107,53.557],[7.206,53.655],[7.285,53.681],[7.629,53.697],[8.009,53.691],[8.167,53.543],[8.108,53.468],[8.201,53.432],[8.245,53.445],[8.279,53.511],[8.302,53.584],[8.334,53.606],[8.451,53.552],[8.493,53.514],[8.495,53.394],[8.538,53.557],[8.506,53.671],[8.528,53.781],[8.576,53.838],[8.619,53.875],[8.898,53.836],[9.206,53.856],[9.322,53.813],[9.585,53.6],[9.673,53.566],[9.784,53.555],[9.631,53.6],[9.312,53.859],[9.216,53.891],[9.07,53.901],[8.978,53.926],[8.92,53.965],[8.904,54],[8.907,54.261],[8.852,54.3],[8.78,54.313],[8.736,54.295],[8.645,54.295],[8.626,54.354],[8.648,54.398],[8.831,54.428],[8.952,54.468],[8.957,54.538],[8.881,54.594],[8.79,54.696],[8.682,54.792],[8.67,54.903],[8.671,54.903],[8.857,54.901],[8.903,54.897],[9.186,54.845],[9.255,54.808],[9.342,54.806],[9.499,54.84],[9.616,54.855],[9.661,54.834],[9.725,54.826],[9.74,54.826],[9.746,54.807],[9.892,54.781],[9.954,54.738],[10.022,54.674],[10.029,54.581],[9.941,54.515],[9.869,54.472],[10.143,54.488],[10.171,54.45],[10.212,54.409],[10.36,54.438],[10.732,54.316],[10.956,54.376],[11.013,54.379],[11.064,54.281],[11.009,54.181],[10.811,54.075],[10.855,54.01],[10.918,53.995],[11.104,54.009],[11.4,53.945],[11.461,53.965],[11.701,54.114],[11.796,54.145],[12.111,54.168],[12.169,54.226],[12.296,54.284],[12.379,54.347],[12.575,54.467],[12.779,54.446],[12.898,54.423],[13.029,54.411],[13.147,54.283],[13.448,54.141],[13.724,54.153],[13.822,54.019],[13.866,53.853],[13.95,53.801],[14.025,53.767],[14.25,53.732],[14.259,53.73],[14.266,53.707],[14.28,53.625],[14.299,53.556],[14.415,53.283],[14.412,53.217],[14.411,53.199],[14.369,53.106],[14.293,53.027],[14.194,52.982],[14.139,52.933],[14.129,52.878],[14.254,52.783],[14.514,52.646],[14.619,52.529],[14.57,52.431],[14.555,52.36],[14.574,52.314],[14.616,52.278],[14.68,52.25],[14.705,52.207],[14.692,52.15],[14.705,52.11],[14.753,52.082],[14.748,52.071],[14.725,52.031],[14.693,51.958],[14.675,51.905],[14.602,51.832],[14.624,51.771],[14.681,51.698],[14.725,51.662],[14.739,51.627],[14.711,51.545],[14.725,51.524],[14.906,51.463],[14.936,51.435],[14.953,51.377],[15.017,51.253],[14.964,51.095],[14.917,51.009],[14.814,50.872],[14.809,50.859],[14.797,50.842],[14.767,50.818],[14.723,50.815],[14.658,50.833],[14.614,50.856],[14.624,50.915],[14.595,50.919],[14.56,50.955],[14.546,50.994],[14.507,51.01],[14.367,51.026],[14.32,51.038],[14.283,51.029],[14.256,51.002],[14.273,50.977],[14.299,50.953],[14.377,50.914],[14.369,50.899],[14.202,50.861],[14.096,50.823],[13.998,50.801],[13.899,50.761],[13.701,50.717],[13.557,50.705],[13.527,50.693],[13.473,50.617],[13.436,50.601],[13.401,50.609],[13.375,50.622],[13.341,50.611],[13.306,50.586],[13.27,50.576],[13.238,50.577],[13.181,50.51],[13.016,50.49],[12.997,50.456],[12.967,50.416],[12.943,50.406],[12.868,50.422],[12.765,50.431],[12.706,50.409],[12.636,50.397],[12.549,50.393],[12.453,50.35],[12.359,50.273],[12.306,50.206],[12.277,50.181],[12.231,50.245],[12.175,50.288],[12.135,50.311],[12.099,50.311],[12.09,50.302],[12.09,50.269],[12.128,50.213],[12.175,50.176],[12.183,50.148],[12.208,50.098],[12.276,50.042],[12.384,49.999],[12.458,49.956],[12.512,49.896],[12.513,49.877],[12.498,49.853],[12.472,49.83],[12.45,49.8],[12.391,49.74],[12.408,49.713],[12.457,49.68],[12.5,49.64],[12.556,49.575],[12.632,49.461],[12.681,49.415],[12.748,49.366],[12.813,49.329],[12.917,49.33],[13.024,49.26],[13.141,49.158],[13.228,49.112],[13.289,49.097],[13.339,49.061],[13.384,49.008],[13.401,48.978],[13.441,48.956],[13.548,48.96],[13.685,48.877],[13.77,48.816],[13.815,48.767],[13.803,48.748],[13.797,48.686],[13.799,48.622],[13.785,48.587],[13.724,48.542],[13.692,48.533],[13.675,48.523],[13.487,48.582],[13.472,48.572],[13.46,48.565],[13.409,48.394],[13.375,48.361],[13.323,48.331],[13.215,48.302],[13.14,48.29],[13.082,48.275],[12.897,48.204],[12.814,48.161],[12.76,48.107],[12.76,48.076],[12.85,47.985],[12.954,47.891],[12.954,47.808],[12.908,47.746],[12.898,47.722],[12.928,47.713],[12.986,47.709],[13.034,47.699],[13.054,47.655],[13.048,47.579],[13.032,47.508],[13.014,47.478],[12.968,47.476],[12.879,47.506],[12.809,47.542],[12.783,47.564],[12.781,47.59],[12.796,47.607],[12.771,47.639],[12.686,47.669],[12.594,47.656],[12.527,47.636],[12.483,47.637],[12.436,47.666],[12.363,47.688],[12.268,47.703],[12.209,47.718],[12.197,47.709],[12.204,47.647],[12.186,47.62],[11.717,47.583],[11.574,47.55],[11.47,47.506],[11.393,47.487],[11.374,47.46],[11.298,47.425],[11.212,47.414],[11.191,47.425],[11.136,47.409],[11.042,47.393],[10.981,47.398],[10.952,47.427],[10.894,47.47],[10.871,47.501],[10.873,47.52],[10.742,47.524],[10.659,47.547],[10.483,47.542],[10.439,47.552],[10.43,47.541],[10.404,47.417],[10.369,47.366],[10.313,47.313],[10.241,47.284],[10.183,47.279],[10.186,47.317],[10.2,47.363],[10.159,47.374],[10.096,47.38],[10.066,47.393],[10.074,47.429],[10.06,47.449],[10.034,47.474],[9.972,47.505],[9.839,47.552],[9.749,47.576],[9.715,47.551],[9.651,47.526],[9.549,47.534],[9.524,47.524]]],[[[13.709,54.383],[13.734,54.315],[13.707,54.281],[13.595,54.338],[13.482,54.337],[13.415,54.25],[13.364,54.246],[13.19,54.326],[13.162,54.365],[13.156,54.397],[13.181,54.509],[13.177,54.544],[13.231,54.583],[13.24,54.638],[13.337,54.697],[13.423,54.699],[13.45,54.65],[13.491,54.615],[13.636,54.577],[13.658,54.56],[13.671,54.535],[13.603,54.488],[13.58,54.464],[13.602,54.425],[13.709,54.383]]],[[[14.211,53.95],[14.198,53.919],[14.214,53.871],[14.172,53.874],[14.048,53.863],[13.926,53.879],[13.902,53.939],[13.922,53.997],[13.872,54.036],[13.827,54.06],[13.82,54.093],[13.828,54.127],[14.039,54.035],[14.211,53.95]]],[[[11.283,54.418],[11.129,54.416],[11.071,54.456],[11.012,54.466],[11.043,54.515],[11.085,54.533],[11.234,54.501],[11.28,54.438],[11.283,54.418]]],[[[8.308,54.787],[8.285,54.767],[8.296,54.908],[8.405,55.059],[8.451,55.055],[8.404,55.015],[8.39,54.986],[8.371,54.929],[8.38,54.9],[8.63,54.892],[8.601,54.865],[8.347,54.848],[8.308,54.787]]],[[[8.588,54.713],[8.549,54.688],[8.454,54.691],[8.4,54.714],[8.418,54.739],[8.468,54.757],[8.51,54.76],[8.573,54.749],[8.588,54.713]]]]}},{"type":"Feature","properties":{"code":"FRA","name":"France"},"geometry":{"type":"MultiPolygon","coordinates":[[[[9.48,42.805],[9.454,42.659],[9.473,42.616],[9.509,42.586],[9.526,42.553],[9.556,42.161],[9.551,42.13],[9.428,41.972],[9.401,41.926],[9.395,41.731],[9.374,41.679],[9.331,41.627],[9.253,41.46],[9.186,41.385],[9.003,41.477],[8.895,41.516],[8.842,41.559],[8.808,41.588],[8.83,41.628],[8.879,41.669],[8.887,41.701],[8.771,41.737],[8.718,41.761],[8.719,41.804],[8.759,41.87],[8.74,41.925],[8.674,41.922],[8.622,41.931],[8.615,41.959],[8.653,41.996],[8.703,42.043],[8.701,42.096],[8.642,42.118],[8.588,42.161],[8.566,42.219],[8.608,42.258],[8.675,42.284],[8.626,42.343],[8.592,42.345],[8.566,42.358],[8.588,42.385],[8.64,42.427],[8.713,42.55],[8.815,42.608],[8.995,42.645],[9.044,42.662],[9.088,42.705],[9.138,42.733],[9.198,42.729],[9.254,42.712],[9.288,42.695],[9.313,42.713],[9.338,42.767],[9.323,42.814],[9.331,42.944],[9.363,43.017],[9.415,43.021],[9.463,42.981],[9.461,42.945],[9.479,42.86],[9.48,42.805]]],[[[7.616,47.593],[7.495,47.547],[7.467,47.508],[7.42,47.455],[7.343,47.433],[7.266,47.426],[7.203,47.433],[7.167,47.454],[7.169,47.473],[7.136,47.49],[7.053,47.489],[6.968,47.453],[6.9,47.394],[6.921,47.361],[6.984,47.353],[7.001,47.339],[7.001,47.323],[6.979,47.302],[6.952,47.267],[6.821,47.163],[6.688,47.058],[6.667,47.027],[6.625,47.004],[6.456,46.948],[6.439,46.926],[6.429,46.832],[6.41,46.755],[6.285,46.683],[6.161,46.611],[6.13,46.567],[6.107,46.516],[6.068,46.459],[6.06,46.428],[6.123,46.379],[6.116,46.338],[6.096,46.279],[6.036,46.238],[5.97,46.215],[5.971,46.151],[6.007,46.142],[6.087,46.147],[6.199,46.193],[6.273,46.252],[6.23,46.308],[6.224,46.319],[6.235,46.333],[6.322,46.394],[6.429,46.431],[6.578,46.437],[6.758,46.416],[6.776,46.407],[6.767,46.369],[6.784,46.314],[6.817,46.275],[6.772,46.165],[6.806,46.131],[6.858,46.089],[6.897,46.052],[6.954,46.017],[7.004,45.959],[7.021,45.926],[6.941,45.868],[6.804,45.815],[6.789,45.78],[6.791,45.741],[6.806,45.71],[6.881,45.67],[6.962,45.581],[7.014,45.5],[7.126,45.424],[7.153,45.401],[7.146,45.382],[7.117,45.349],[7.078,45.24],[7.032,45.223],[6.981,45.216],[6.842,45.136],[6.78,45.145],[6.692,45.144],[6.628,45.118],[6.635,45.068],[6.691,45.023],[6.725,44.973],[6.738,44.921],[6.801,44.883],[6.889,44.86],[6.94,44.859],[6.973,44.845],[6.993,44.827],[7.031,44.717],[7.008,44.689],[6.96,44.677],[6.932,44.632],[6.875,44.565],[6.843,44.511],[6.879,44.463],[6.894,44.428],[6.875,44.392],[6.9,44.336],[6.967,44.28],[7.149,44.202],[7.319,44.138],[7.371,44.127],[7.599,44.168],[7.637,44.165],[7.665,44.116],[7.677,44.083],[7.651,44.034],[7.59,43.965],[7.523,43.911],[7.482,43.865],[7.491,43.823],[7.493,43.767],[7.439,43.75],[7.437,43.761],[7.414,43.771],[7.395,43.765],[7.38,43.753],[7.378,43.732],[7.262,43.696],[7.181,43.659],[6.865,43.438],[6.717,43.374],[6.687,43.335],[6.657,43.262],[6.57,43.199],[6.494,43.169],[6.305,43.139],[6.116,43.072],[6.031,43.101],[5.809,43.098],[5.672,43.178],[5.407,43.229],[5.32,43.345],[5.2,43.352],[5.12,43.349],[5.073,43.367],[5.061,43.406],[5.06,43.445],[4.976,43.427],[4.912,43.427],[4.874,43.412],[4.844,43.394],[4.808,43.405],[4.787,43.401],[4.789,43.379],[4.712,43.373],[4.629,43.387],[4.41,43.447],[4.376,43.456],[4.224,43.48],[4.163,43.504],[4.113,43.563],[4.075,43.582],[4.053,43.593],[3.911,43.563],[3.862,43.516],[3.785,43.462],[3.259,43.193],[3.163,43.081],[3.052,42.915],[3.043,42.838],[3.091,42.591],[3.198,42.461],[3.211,42.431],[3.152,42.431],[3.053,42.447],[2.97,42.467],[2.891,42.456],[2.816,42.429],[2.749,42.413],[2.702,42.408],[2.67,42.393],[2.655,42.362],[2.652,42.34],[2.568,42.346],[2.374,42.39],[2.2,42.421],[2.098,42.386],[2.033,42.354],[1.987,42.358],[1.951,42.393],[1.928,42.426],[1.86,42.457],[1.706,42.503],[1.714,42.526],[1.74,42.557],[1.739,42.576],[1.71,42.604],[1.568,42.635],[1.501,42.643],[1.459,42.622],[1.428,42.596],[1.349,42.691],[1.293,42.71],[1.208,42.713],[1.111,42.742],[1.01,42.779],[0.764,42.838],[0.697,42.845],[0.67,42.836],[0.652,42.8],[0.642,42.701],[0.632,42.69],[0.518,42.686],[0.377,42.7],[0.313,42.693],[0.255,42.693],[0.201,42.719],[-0.041,42.689],[-0.081,42.704],[-0.14,42.749],[-0.205,42.785],[-0.256,42.804],[-0.299,42.825],[-0.339,42.829],[-0.398,42.808],[-0.481,42.799],[-0.55,42.802],[-0.586,42.799],[-0.74,42.91],[-0.763,42.94],[-0.839,42.948],[-0.934,42.95],[-1.175,43.021],[-1.285,43.06],[-1.302,43.082],[-1.3,43.101],[-1.319,43.097],[-1.353,43.064],[-1.371,43.038],[-1.394,43.033],[-1.429,43.037],[-1.461,43.052],[-1.48,43.071],[-1.459,43.105],[-1.423,43.149],[-1.407,43.197],[-1.411,43.24],[-1.472,43.268],[-1.561,43.279],[-1.627,43.282],[-1.713,43.307],[-1.753,43.325],[-1.793,43.373],[-1.794,43.407],[-1.631,43.438],[-1.485,43.564],[-1.346,44.02],[-1.246,44.56],[-1.171,44.662],[-1.077,44.69],[-1.153,44.764],[-1.2,44.726],[-1.22,44.687],[-1.245,44.667],[-1.189,45.161],[-1.149,45.343],[-1.081,45.532],[-0.942,45.457],[-0.826,45.381],[-0.767,45.314],[-0.691,45.093],[-0.634,45.047],[-0.548,45.001],[-0.582,45.051],[-0.641,45.09],[-0.733,45.385],[-0.791,45.468],[-0.881,45.538],[-1.17,45.686],[-1.196,45.714],[-1.21,45.771],[-1.114,45.769],[-1.032,45.741],[-1.042,45.773],[-1.066,45.806],[-1.104,45.925],[-1.136,46.205],[-1.132,46.253],[-1.146,46.311],[-1.239,46.325],[-1.313,46.327],[-1.392,46.35],[-1.787,46.515],[-1.921,46.685],[-2.059,46.81],[-2.092,46.865],[-2.09,46.921],[-2.019,47.038],[-2.082,47.112],[-2.144,47.126],[-2.197,47.163],[-2.149,47.224],[-2.108,47.263],[-2.028,47.274],[-1.922,47.261],[-1.821,47.225],[-1.743,47.216],[-1.975,47.311],[-2.353,47.279],[-2.434,47.291],[-2.503,47.312],[-2.53,47.382],[-2.476,47.413],[-2.428,47.471],[-2.483,47.512],[-2.554,47.527],[-2.666,47.526],[-2.77,47.514],[-2.797,47.537],[-2.733,47.602],[-2.787,47.626],[-2.859,47.614],[-2.964,47.601],[-3.064,47.621],[-3.159,47.695],[-3.222,47.694],[-3.265,47.685],[-3.329,47.713],[-3.396,47.72],[-3.444,47.711],[-3.508,47.753],[-3.901,47.838],[-4.071,47.848],[-4.226,47.81],[-4.312,47.823],[-4.375,47.877],[-4.428,47.969],[-4.679,48.04],[-4.629,48.086],[-4.512,48.097],[-4.378,48.129],[-4.329,48.17],[-4.435,48.218],[-4.512,48.23],[-4.544,48.247],[-4.577,48.29],[-4.531,48.31],[-4.498,48.299],[-4.403,48.293],[-4.241,48.304],[-4.302,48.347],[-4.364,48.357],[-4.393,48.368],[-4.525,48.372],[-4.585,48.358],[-4.719,48.363],[-4.749,48.41],[-4.762,48.45],[-4.721,48.54],[-4.531,48.62],[-4.059,48.708],[-3.856,48.695],[-3.715,48.71],[-3.546,48.766],[-3.471,48.813],[-3.231,48.841],[-3.003,48.791],[-2.793,48.601],[-2.692,48.537],[-2.446,48.648],[-2.079,48.645],[-2.004,48.582],[-1.973,48.635],[-1.906,48.697],[-1.852,48.669],[-1.825,48.631],[-1.438,48.641],[-1.376,48.653],[-1.48,48.698],[-1.565,48.806],[-1.583,49.202],[-1.69,49.313],[-1.813,49.49],[-1.87,49.595],[-1.875,49.631],[-1.856,49.684],[-1.705,49.681],[-1.588,49.668],[-1.366,49.707],[-1.259,49.68],[-1.265,49.598],[-1.232,49.495],[-1.195,49.445],[-1.139,49.388],[-0.959,49.393],[-0.766,49.36],[-0.521,49.355],[-0.163,49.297],[-0.011,49.33],[0.136,49.402],[0.417,49.448],[0.439,49.473],[0.278,49.463],[0.129,49.508],[0.109,49.558],[0.127,49.602],[0.187,49.703],[0.616,49.863],[0.924,49.91],[1.246,49.998],[1.407,50.089],[1.514,50.205],[1.548,50.231],[1.593,50.252],[1.552,50.294],[1.579,50.739],[1.61,50.819],[1.672,50.885],[1.768,50.936],[1.913,50.991],[2.446,51.067],[2.525,51.097],[2.536,51.05],[2.575,50.989],[2.601,50.955],[2.579,50.912],[2.597,50.876],[2.669,50.811],[2.759,50.751],[2.84,50.712],[2.862,50.716],[2.922,50.727],[3.023,50.767],[3.107,50.779],[3.155,50.749],[3.182,50.732],[3.235,50.663],[3.25,50.591],[3.273,50.532],[3.316,50.507],[3.477,50.499],[3.595,50.477],[3.627,50.457],[3.667,50.325],[3.689,50.306],[3.719,50.322],[3.748,50.344],[3.789,50.347],[3.858,50.339],[3.95,50.336],[4.044,50.321],[4.175,50.246],[4.17,50.222],[4.144,50.178],[4.135,50.144],[4.158,50.13],[4.192,50.094],[4.184,50.053],[4.15,50.024],[4.137,50],[4.137,49.984],[4.149,49.972],[4.176,49.96],[4.369,49.945],[4.545,49.96],[4.656,50.002],[4.675,50.047],[4.707,50.097],[4.773,50.139],[4.819,50.153],[4.861,50.136],[4.79,49.96],[4.842,49.915],[4.849,49.847],[4.868,49.788],[4.931,49.789],[5.007,49.778],[5.061,49.757],[5.124,49.721],[5.215,49.689],[5.279,49.678],[5.302,49.651],[5.354,49.62],[5.435,49.554],[5.507,49.511],[5.542,49.511],[5.61,49.528],[5.71,49.539],[5.79,49.538],[5.823,49.505],[5.901,49.49],[5.929,49.478],[5.959,49.455],[6.011,49.445],[6.074,49.455],[6.12,49.485],[6.181,49.499],[6.242,49.494],[6.277,49.478],[6.344,49.453],[6.382,49.458],[6.458,49.443],[6.534,49.395],[6.566,49.346],[6.575,49.32],[6.608,49.291],[6.735,49.161],[6.776,49.154],[6.821,49.174],[6.85,49.202],[6.891,49.208],[6.958,49.195],[7.001,49.18],[7.022,49.123],[7.037,49.113],[7.066,49.125],[7.117,49.128],[7.2,49.114],[7.313,49.13],[7.404,49.153],[7.451,49.152],[7.525,49.086],[7.611,49.062],[7.799,49.042],[8.001,49.011],[8.081,48.986],[8.135,48.974],[8.14,48.886],[8.124,48.873],[7.923,48.699],[7.838,48.636],[7.795,48.547],[7.765,48.41],[7.706,48.28],[7.617,48.157],[7.584,48.064],[7.608,48.003],[7.593,47.906],[7.539,47.774],[7.529,47.674],[7.565,47.607],[7.616,47.593]]],[[[-1.178,45.904],[-1.214,45.817],[-1.28,45.897],[-1.369,45.968],[-1.389,46.033],[-1.389,46.05],[-1.285,46.003],[-1.178,45.904]]]]}},{"type":"Feature","properties":{"code":"BEL","name":"Belgique"},"geometry":{"type":"MultiPolygon","coordinates":[[[[4.226,51.386],[4.304,51.362],[4.374,51.356],[4.404,51.367],[4.385,51.428],[4.441,51.46],[4.503,51.475],[4.532,51.449],[4.589,51.422],[4.634,51.422],[4.756,51.491],[4.784,51.477],[4.811,51.453],[4.816,51.433],[4.821,51.412],[4.848,51.403],[4.944,51.408],[4.993,51.445],[5.031,51.469],[5.059,51.453],[5.073,51.407],[5.1,51.346],[5.214,51.279],[5.311,51.26],[5.43,51.273],[5.477,51.285],[5.509,51.275],[5.54,51.239],[5.609,51.198],[5.752,51.169],[5.796,51.153],[5.827,51.126],[5.818,51.086],[5.75,50.989],[5.741,50.96],[5.75,50.95],[5.737,50.932],[5.648,50.867],[5.639,50.844],[5.669,50.806],[5.694,50.775],[5.747,50.76],[5.797,50.755],[5.892,50.753],[5.994,50.75],[6.006,50.732],[6.119,50.679],[6.154,50.637],[6.236,50.597],[6.168,50.545],[6.179,50.523],[6.203,50.499],[6.295,50.485],[6.341,50.452],[6.344,50.4],[6.364,50.316],[6.175,50.233],[6.121,50.139],[6.117,50.121],[6.11,50.124],[6.089,50.155],[6.055,50.154],[5.976,50.167],[5.867,50.083],[5.817,50.013],[5.788,49.961],[5.744,49.92],[5.735,49.876],[5.741,49.857],[5.726,49.833],[5.725,49.808],[5.788,49.759],[5.804,49.732],[5.88,49.645],[5.857,49.613],[5.838,49.578],[5.815,49.554],[5.79,49.538],[5.71,49.539],[5.61,49.528],[5.542,49.511],[5.507,49.511],[5.435,49.554],[5.354,49.62],[5.302,49.651],[5.279,49.678],[5.215,49.689],[5.124,49.721],[5.061,49.757],[5.007,49.778],[4.931,49.789],[4.868,49.788],[4.849,49.847],[4.842,49.915],[4.79,49.96],[4.861,50.136],[4.819,50.153],[4.773,50.139],[4.707,50.097],[4.675,50.047],[4.656,50.002],[4.545,49.96],[4.369,49.945],[4.176,49.96],[4.149,49.972],[4.137,49.984],[4.137,50],[4.15,50.024],[4.184,50.053],[4.192,50.094],[4.158,50.13],[4.135,50.144],[4.144,50.178],[4.17,50.222],[4.175,50.246],[4.044,50.321],[3.95,50.336],[3.858,50.339],[3.789,50.347],[3.748,50.344],[3.719,50.322],[3.689,50.306],[3.667,50.325],[3.627,50.457],[3.595,50.477],[3.477,50.499],[3.316,50.507],[3.273,50.532],[3.25,50.591],[3.235,50.663],[3.182,50.732],[3.155,50.749],[3.107,50.779],[3.023,50.767],[2.922,50.727],[2.862,50.716],[2.84,50.712],[2.759,50.751],[2.669,50.811],[2.597,50.876],[2.579,50.912],[2.601,50.955],[2.575,50.989],[2.536,51.05],[2.525,51.097],[2.96,51.265],[3.225,51.352],[3.35,51.378],[3.38,51.291],[3.403,51.264],[3.433,51.246],[3.472,51.242],[3.517,51.264],[3.58,51.286],[3.682,51.276],[3.756,51.255],[3.782,51.233],[3.831,51.213],[3.902,51.208],[4.04,51.247],[4.173,51.307],[4.211,51.349],[4.226,51.386]]]]}},{"type":"Feature","properties":{"code":"AUT","name":"Autriche"},"geometry":{"type":"MultiPolygon","coordinates":[[[[9.528,47.271],[9.609,47.392],[9.626,47.467],[9.554,47.511],[9.524,47.524],[9.549,47.534],[9.651,47.526],[9.715,47.551],[9.749,47.576],[9.839,47.552],[9.972,47.505],[10.034,47.474],[10.06,47.449],[10.074,47.429],[10.066,47.393],[10.096,47.38],[10.159,47.374],[10.2,47.363],[10.186,47.317],[10.183,47.279],[10.241,47.284],[10.313,47.313],[10.369,47.366],[10.404,47.417],[10.43,47.541],[10.439,47.552],[10.483,47.542],[10.659,47.547],[10.742,47.524],[10.873,47.52],[10.871,47.501],[10.894,47.47],[10.952,47.427],[10.981,47.398],[11.042,47.393],[11.136,47.409],[11.191,47.425],[11.212,47.414],[11.298,47.425],[11.374,47.46],[11.393,47.487],[11.47,47.506],[11.574,47.55],[11.717,47.583],[12.186,47.62],[12.204,47.647],[12.197,47.709],[12.209,47.718],[12.268,47.703],[12.363,47.688],[12.436,47.666],[12.483,47.637],[12.527,47.636],[12.594,47.656],[12.686,47.669],[12.771,47.639],[12.796,47.607],[12.781,47.59],[12.783,47.564],[12.809,47.542],[12.879,47.506],[12.968,47.476],[13.014,47.478],[13.032,47.508],[13.048,47.579],[13.054,47.655],[13.034,47.699],[12.986,47.709],[12.928,47.713],[12.898,47.722],[12.908,47.746],[12.954,47.808],[12.954,47.891],[12.85,47.985],[12.76,48.076],[12.76,48.107],[12.814,48.161],[12.897,48.204],[13.082,48.275],[13.14,48.29],[13.215,48.302],[13.323,48.331],[13.375,48.361],[13.409,48.394],[13.46,48.565],[13.472,48.572],[13.487,48.582],[13.675,48.523],[13.692,48.533],[13.724,48.542],[13.785,48.587],[13.799,48.622],[13.797,48.686],[13.803,48.748],[13.815,48.767],[13.843,48.76],[13.924,48.728],[13.989,48.692],[14.049,48.602],[14.19,48.579],[14.368,48.576],[14.431,48.616],[14.489,48.626],[14.554,48.613],[14.691,48.599],[14.707,48.672],[14.786,48.747],[14.822,48.774],[14.923,48.771],[14.947,48.828],[14.972,48.984],[14.993,49.001],[15.067,48.998],[15.14,48.969],[15.162,48.946],[15.2,48.948],[15.253,48.964],[15.311,48.974],[15.403,48.957],[15.599,48.886],[15.701,48.86],[15.765,48.865],[15.825,48.864],[16.057,48.755],[16.219,48.739],[16.367,48.739],[16.415,48.772],[16.478,48.8],[16.544,48.796],[16.601,48.782],[16.713,48.734],[16.764,48.722],[16.833,48.714],[16.884,48.704],[16.928,48.621],[16.953,48.599],[16.949,48.589],[16.943,48.551],[16.904,48.504],[16.863,48.441],[16.865,48.387],[16.973,48.198],[17.068,48.083],[17.086,48.04],[17.147,48.006],[17.089,47.964],[17.078,47.901],[17.04,47.873],[17.03,47.837],[17.046,47.805],[17.046,47.764],[17.067,47.708],[16.973,47.695],[16.863,47.697],[16.823,47.694],[16.786,47.679],[16.748,47.686],[16.647,47.739],[16.591,47.751],[16.551,47.747],[16.521,47.724],[16.47,47.695],[16.421,47.674],[16.432,47.656],[16.64,47.609],[16.677,47.536],[16.637,47.477],[16.623,47.448],[16.574,47.425],[16.515,47.405],[16.443,47.4],[16.434,47.367],[16.463,47.273],[16.44,47.253],[16.417,47.223],[16.438,47.146],[16.483,47.14],[16.493,47.123],[16.485,47.091],[16.477,47.058],[16.461,47.022],[16.453,47.007],[16.424,46.997],[16.332,47.002],[16.253,46.972],[16.093,46.863],[16.037,46.845],[15.977,46.801],[15.98,46.706],[15.972,46.697],[15.958,46.678],[15.767,46.711],[15.76,46.711],[15.633,46.698],[15.545,46.655],[15.439,46.63],[15.217,46.643],[15.001,46.626],[14.949,46.613],[14.893,46.606],[14.841,46.58],[14.811,46.545],[14.757,46.499],[14.68,46.463],[14.597,46.436],[14.577,46.413],[14.55,46.4],[14.504,46.417],[14.466,46.416],[14.42,46.428],[14.267,46.441],[14.1,46.462],[14.02,46.482],[13.929,46.498],[13.831,46.511],[13.744,46.514],[13.7,46.52],[13.49,46.556],[13.352,46.558],[13.169,46.573],[12.806,46.626],[12.7,46.647],[12.599,46.654],[12.479,46.673],[12.388,46.703],[12.33,46.76],[12.268,46.836],[12.154,46.935],[12.131,46.985],[12.166,47.028],[12.201,47.061],[12.197,47.075],[12.169,47.082],[11.97,47.04],[11.776,46.986],[11.699,46.985],[11.625,46.997],[11.528,46.997],[11.433,46.983],[11.244,46.976],[11.134,46.936],[11.063,46.859],[11.025,46.797],[10.993,46.777],[10.927,46.769],[10.829,46.775],[10.76,46.793],[10.689,46.846],[10.58,46.854],[10.479,46.855],[10.453,46.865],[10.455,46.899],[10.415,46.964],[10.349,46.985],[10.18,46.862],[10.133,46.852],[9.997,46.885],[9.878,46.938],[9.865,46.976],[9.845,47.007],[9.745,47.037],[9.62,47.057],[9.58,47.057],[9.596,47.076],[9.611,47.107],[9.601,47.132],[9.572,47.158],[9.556,47.185],[9.551,47.212],[9.542,47.234],[9.537,47.255],[9.528,47.271]]]]}},{"type":"Feature","properties":{"code":"AND","name":"Andorre"},"geometry":{"type":"MultiPolygon","coordinates":[[[[1.706,42.503],[1.679,42.497],[1.586,42.456],[1.534,42.442],[1.486,42.434],[1.449,42.437],[1.428,42.461],[1.43,42.498],[1.422,42.531],[1.415,42.548],[1.428,42.596],[1.459,42.622],[1.501,42.643],[1.568,42.635],[1.71,42.604],[1.739,42.576],[1.74,42.557],[1.714,42.526],[1.706,42.503]]]]}}]}